ONEWEB-0233             
1 48795U 21045AE  24363.04375395 -.00000032  00000+0 -11923-3 0  9994
2 48795  87.9063   5.9894 0001523  96.4717 263.6587 13.15546520173806
ONEWEB-0190             
1 48796U 21045AF  24363.48662944  .00000040  00000+0  73067-4 0  9997
2 48796  87.9066   5.8626 0000833  96.8505 263.2720 13.15550841173934
ONEWEB-0236             
1 48797U 21045AG  24363.42800856 -.00000105  00000+0 -31276-3 0  9997
2 48797  87.9068   5.8751 0001681  94.7019 265.4303 13.15550460173810
ONEWEB-0248             
1 48798U 21045AH  24363.44067773  .00000070  00000+0  15217-3 0  9999
2 48798  87.9058   5.8463 0001370 114.6909 245.4364 13.15550933173972
ONEWEB-0225             
1 48799U 21045AJ  24363.38680591  .00000074  00000+0  16315-3 0  9996
2 48799  87.9065   5.8784 0001325  94.1562 265.9719 13.15549903173970
ONEWEB-0215             
1 48800U 21045AK  24363.43275982 -.00000016  00000+0 -75436-4 0  9997
2 48800  87.9058   5.8320 0001173 111.1916 248.9340 13.15550238173856
ONEWEB-0216             
1 48801U 21045AL  24363.29016897 -.00000030  00000+0 -11350-3 0  9990
2 48801  87.9059   5.9039 0001681  82.7632 277.3689 13.15548460173843
ONEWEB-0239             
1 48802U 21045AM  24363.44702794  .00000133  00000+0  32051-3 0  9999
2 48802  87.9068   5.8655 0001273 120.9253 239.2002 13.15549921173904
